STARLINK-1172           
1 45074U 20006AG  26068.70759554 -.00001306  00000+0 -31999-4 0  9998
2 45074  53.1578 257.7398 0001496  86.4728 273.6444 15.30183132336871
TEVEL2-9                
1 63237U 25052AD  26068.70229538  .00018694  00000+0  67240-3 0  9992
2 63237  97.4057 324.3929 0007990 124.2475 235.9522 15.28633834 54816
